[{"OBJECT_NAME":"GLOBAL-13","OBJECT_ID":"2021-115BB","EPOCH":"2026-04-05T03:17:37.841856","MEAN_MOTION":15.43414191,"ECCENTRICITY":7.562e-5,"INCLINATION":53.1988,"RA_OF_ASC_NODE":41.1408,"ARG_OF_PERICENTER":151.435,"MEAN_ANOMALY":208.6698,"EPHEMERIS_TYPE":0,"CLASSIFICATION_TYPE":"U","NORAD_CAT_ID":49773,"ELEMENT_SET_NO":999,"REV_AT_EPOCH":24447,"BSTAR":0.0006038768,"MEAN_MOTION_DOT":0.00027088,"MEAN_MOTION_DDOT":0},{"OBJECT_NAME":"GLOBAL-17","OBJECT_ID":"2021-120A","EPOCH":"2026-04-05T02:28:17.267232","MEAN_MOTION":15.48647201,"ECCENTRICITY":0.00102389,"INCLINATION":41.9937,"RA_OF_ASC_NODE":123.5708,"ARG_OF_PERICENTER":102.449,"MEAN_ANOMALY":257.75,"EPHEMERIS_TYPE":0,"CLASSIFICATION_TYPE":"U","NORAD_CAT_ID":49949,"ELEMENT_SET_NO":999,"REV_AT_EPOCH":24355,"BSTAR":0.00056493465,"MEAN_MOTION_DOT":0.0003085,"MEAN_MOTION_DDOT":0},{"OBJECT_NAME":"GLOBAL-16","OBJECT_ID":"2021-120B","EPOCH":"2026-04-05T03:44:05.885088","MEAN_MOTION":15.46913904,"ECCENTRICITY":0.00082483,"INCLINATION":41.9946,"RA_OF_ASC_NODE":125.7474,"ARG_OF_PERICENTER":91.7765,"MEAN_ANOMALY":268.4022,"EPHEMERIS_TYPE":0,"CLASSIFICATION_TYPE":"U","NORAD_CAT_ID":49950,"ELEMENT_SET_NO":999,"REV_AT_EPOCH":24352,"BSTAR":0.00058192659,"MEAN_MOTION_DOT":0.00029885,"MEAN_MOTION_DDOT":0},{"OBJECT_NAME":"XW-3 (CAS-9)","OBJECT_ID":"2021-131B","EPOCH":"2026-04-05T07:14:07.209312","MEAN_MOTION":14.41287823,"ECCENTRICITY":0.00032907,"INCLINATION":98.4952,"RA_OF_ASC_NODE":188.1021,"ARG_OF_PERICENTER":332.4022,"MEAN_ANOMALY":27.6991,"EPHEMERIS_TYPE":0,"CLASSIFICATION_TYPE":"U","NORAD_CAT_ID":50466,"ELEMENT_SET_NO":999,"REV_AT_EPOCH":22461,"BSTAR":0.00029290959,"MEAN_MOTION_DOT":9.03e-6,"MEAN_MOTION_DDOT":0},{"OBJECT_NAME":"ION SCV-004","OBJECT_ID":"2022-002K","EPOCH":"2026-04-05T02:51:41.402016","MEAN_MOTION":15.29726628,"ECCENTRICITY":0.00058767,"INCLINATION":97.2902,"RA_OF_ASC_NODE":154.1625,"ARG_OF_PERICENTER":248.1212,"MEAN_ANOMALY":111.9404,"EPHEMERIS_TYPE":0,"CLASSIFICATION_TYPE":"U","NORAD_CAT_ID":50993,"ELEMENT_SET_NO":999,"REV_AT_EPOCH":23412,"BSTAR":0.00027482794,"MEAN_MOTION_DOT":7.844e-5,"MEAN_MOTION_DDOT":0},{"OBJECT_NAME":"ETV-A1","OBJECT_ID":"2022-002CE","EPOCH":"2026-04-05T05:37:39.616320","MEAN_MOTION":15.39180305,"ECCENTRICITY":0.00039507,"INCLINATION":97.2934,"RA_OF_ASC_NODE":161.8121,"ARG_OF_PERICENTER":236.2475,"MEAN_ANOMALY":123.8395,"EPHEMERIS_TYPE":0,"CLASSIFICATION_TYPE":"U","NORAD_CAT_ID":51060,"ELEMENT_SET_NO":999,"REV_AT_EPOCH":23461,"BSTAR":0.00038358072,"MEAN_MOTION_DOT":0.00014831,"MEAN_MOTION_DDOT":0},{"OBJECT_NAME":"BRO-5","OBJECT_ID":"2022-002CF","EPOCH":"2026-04-05T06:54:16.466112","MEAN_MOTION":15.44431766,"ECCENTRICITY":0.00040898,"INCLINATION":97.304,"RA_OF_ASC_NODE":168.4862,"ARG_OF_PERICENTER":218.5739,"MEAN_ANOMALY":141.5218,"EPHEMERIS_TYPE":0,"CLASSIFICATION_TYPE":"U","NORAD_CAT_ID":51061,"ELEMENT_SET_NO":999,"REV_AT_EPOCH":23499,"BSTAR":0.00084707295,"MEAN_MOTION_DOT":0.00039241,"MEAN_MOTION_DDOT":0},{"OBJECT_NAME":"LUDI TANCE 1-01A (L-SAR 01A)","OBJECT_ID":"2022-007A","EPOCH":"2026-04-03T08:34:50.757888","MEAN_MOTION":14.88435804,"ECCENTRICITY":0.00016304,"INCLINATION":97.8107,"RA_OF_ASC_NODE":101.846,"ARG_OF_PERICENTER":86.7478,"MEAN_ANOMALY":273.3925,"EPHEMERIS_TYPE":0,"CLASSIFICATION_TYPE":"U","NORAD_CAT_ID":51284,"ELEMENT_SET_NO":999,"REV_AT_EPOCH":22734,"BSTAR":0.00013248206,"MEAN_MOTION_DOT":1.174e-5,"MEAN_MOTION_DDOT":0},{"OBJECT_NAME":"INSPIRESAT 1","OBJECT_ID":"2022-013B","EPOCH":"2026-04-05T01:49:41.157120","MEAN_MOTION":15.90379751,"ECCENTRICITY":0.0001594,"INCLINATION":97.438,"RA_OF_ASC_NODE":144.7852,"ARG_OF_PERICENTER":204.1514,"MEAN_ANOMALY":155.9685,"EPHEMERIS_TYPE":0,"CLASSIFICATION_TYPE":"U","NORAD_CAT_ID":51657,"ELEMENT_SET_NO":999,"REV_AT_EPOCH":23105,"BSTAR":0.00099775359,"MEAN_MOTION_DOT":0.0030168,"MEAN_MOTION_DDOT":3.5625036e-5},{"OBJECT_NAME":"LUDI TANCE 1-01B (L-SAR 01B)","OBJECT_ID":"2022-018A","EPOCH":"2026-04-03T11:00:05.027328","MEAN_MOTION":14.8842723,"ECCENTRICITY":0.00015932,"INCLINATION":97.8115,"RA_OF_ASC_NODE":101.937,"ARG_OF_PERICENTER":89.7909,"MEAN_ANOMALY":270.349,"EPHEMERIS_TYPE":0,"CLASSIFICATION_TYPE":"U","NORAD_CAT_ID":51822,"ELEMENT_SET_NO":999,"REV_AT_EPOCH":22259,"BSTAR":0.0001232946,"MEAN_MOTION_DOT":1.089e-5,"MEAN_MOTION_DDOT":0},{"OBJECT_NAME":"2022-019D","OBJECT_ID":"2022-019D","EPOCH":"2026-04-05T06:53:47.559264","MEAN_MOTION":15.62197799,"ECCENTRICITY":0.00045126,"INCLINATION":97.367,"RA_OF_ASC_NODE":184.3428,"ARG_OF_PERICENTER":45.9905,"MEAN_ANOMALY":314.1724,"EPHEMERIS_TYPE":0,"CLASSIFICATION_TYPE":"U","NORAD_CAT_ID":51827,"ELEMENT_SET_NO":999,"REV_AT_EPOCH":22829,"BSTAR":0.00082672552,"MEAN_MOTION_DOT":0.00073084,"MEAN_MOTION_DDOT":0},{"OBJECT_NAME":"JILIN-1 GAOFEN 03D14","OBJECT_ID":"2022-019H","EPOCH":"2026-04-05T06:39:11.354400","MEAN_MOTION":15.97221388,"ECCENTRICITY":0.00034502,"INCLINATION":97.3636,"RA_OF_ASC_NODE":190.6431,"ARG_OF_PERICENTER":262.1142,"MEAN_ANOMALY":97.9743,"EPHEMERIS_TYPE":0,"CLASSIFICATION_TYPE":"U","NORAD_CAT_ID":51831,"ELEMENT_SET_NO":999,"REV_AT_EPOCH":22869,"BSTAR":0.0012721475,"MEAN_MOTION_DOT":0.00551134,"MEAN_MOTION_DDOT":0.00013039533},{"OBJECT_NAME":"2022-019J","OBJECT_ID":"2022-019J","EPOCH":"2026-04-05T06:41:32.685792","MEAN_MOTION":15.20134411,"ECCENTRICITY":0.0010296,"INCLINATION":97.3484,"RA_OF_ASC_NODE":159.9679,"ARG_OF_PERICENTER":120.0233,"MEAN_ANOMALY":240.2025,"EPHEMERIS_TYPE":0,"CLASSIFICATION_TYPE":"U","NORAD_CAT_ID":51832,"ELEMENT_SET_NO":999,"REV_AT_EPOCH":22672,"BSTAR":9.3485932e-5,"MEAN_MOTION_DOT":1.956e-5,"MEAN_MOTION_DDOT":0},{"OBJECT_NAME":"JILIN-1 GAOFEN 03D16","OBJECT_ID":"2022-019L","EPOCH":"2026-04-04T20:42:37.647936","MEAN_MOTION":16.29530138,"ECCENTRICITY":0.0009733,"INCLINATION":97.3534,"RA_OF_ASC_NODE":192.0232,"ARG_OF_PERICENTER":271.1205,"MEAN_ANOMALY":88.8974,"EPHEMERIS_TYPE":0,"CLASSIFICATION_TYPE":"U","NORAD_CAT_ID":51834,"ELEMENT_SET_NO":999,"REV_AT_EPOCH":22875,"BSTAR":0.0011271271,"MEAN_MOTION_DOT":0.04742356,"MEAN_MOTION_DDOT":2.457545e-6},{"OBJECT_NAME":"JILIN-1 GAOFEN 03D11","OBJECT_ID":"2022-019M","EPOCH":"2026-04-05T06:58:54.657696","MEAN_MOTION":15.90916047,"ECCENTRICITY":0.00023813,"INCLINATION":97.3687,"RA_OF_ASC_NODE":190.4896,"ARG_OF_PERICENTER":243.0208,"MEAN_ANOMALY":117.0822,"EPHEMERIS_TYPE":0,"CLASSIFICATION_TYPE":"U","NORAD_CAT_ID":51835,"ELEMENT_SET_NO":999,"REV_AT_EPOCH":22867,"BSTAR":0.0012396098,"MEAN_MOTION_DOT":0.00385264,"MEAN_MOTION_DDOT":5.7844164e-5},{"OBJECT_NAME":"JILIN-1 GAOFEN 03D15","OBJECT_ID":"2022-019R","EPOCH":"2026-04-05T05:10:28.362720","MEAN_MOTION":15.76735131,"ECCENTRICITY":0.00011653,"INCLINATION":97.3664,"RA_OF_ASC_NODE":187.9485,"ARG_OF_PERICENTER":152.6855,"MEAN_ANOMALY":207.4472,"EPHEMERIS_TYPE":0,"CLASSIFICATION_TYPE":"U","NORAD_CAT_ID":51839,"ELEMENT_SET_NO":999,"REV_AT_EPOCH":22853,"BSTAR":0.0011722548,"MEAN_MOTION_DOT":0.00191125,"MEAN_MOTION_DDOT":0}]
