GLOBAL-13               
1 49773U 21115BB  26095.13724354  .00027088  00000+0  60388-3 0  9993
2 49773  53.1988  41.1408 0000756 151.4350 208.6698 15.43414191244474
GLOBAL-17               
1 49949U 21120A   26095.10297763  .00030850  00000+0  56493-3 0  9993
2 49949  41.9937 123.5708 0010238 102.4490 257.7500 15.48647201243553
GLOBAL-16               
1 49950U 21120B   26095.15562367  .00029885  00000+0  58193-3 0  9990
2 49950  41.9946 125.7474 0008248  91.7765 268.4022 15.46913904243521
XW-3 (CAS-9)            
1 50466U 21131B   26095.30147233  .00000903  00000+0  29291-3 0  9991
2 50466  98.4952 188.1021 0003290 332.4022  27.6991 14.41287823224610
ION SCV-004             
1 50993U 22002K   26095.11922919  .00007844  00000+0  27483-3 0  9997
2 50993  97.2902 154.1625 0005876 248.1212 111.9404 15.29726628234127
ETV-A1                  
1 51060U 22002CE  26095.23448630  .00014831  00000+0  38358-3 0  9996
2 51060  97.2934 161.8121 0003950 236.2475 123.8395 15.39180305234616
BRO-5                   
1 51061U 22002CF  26095.28769058  .00039241  00000+0  84707-3 0  9993
2 51061  97.3040 168.4862 0004089 218.5739 141.5218 15.44431766234999
LUDI TANCE 1-01A (L-SA*)
1 51284U 22007A   26093.35753192  .00001174  00000+0  13248-3 0  9999
2 51284  97.8107 101.8460 0001630  86.7478 273.3925 14.88435804227348
INSPIRESAT 1            
1 51657U 22013B   26095.07617080  .00301680  35625-4  99775-3 0  9996
2 51657  97.4380 144.7852 0001594 204.1514 155.9685 15.90379751231051
LUDI TANCE 1-01B (L-SA*)
1 51822U 22018A   26093.45839152  .00001089  00000+0  12329-3 0  9995
2 51822  97.8115 101.9370 0001593  89.7909 270.3490 14.88427230222596
2022-019D               
1 51827U 22019D   26095.28735601  .00073084  00000+0  82673-3 0  9991
2 51827  97.3670 184.3428 0004512  45.9905 314.1724 15.62197799228292
JILIN-1 GAOFEN 03D14    
1 51831U 22019H   26095.27721475  .00551134  13040-3  12721-2 0  9994
2 51831  97.3636 190.6431 0003450 262.1142  97.9743 15.97221388228690
2022-019J               
1 51832U 22019J   26095.27885053  .00001956  00000+0  93486-4 0  9997
2 51832  97.3484 159.9679 0010296 120.0233 240.2025 15.20134411226727
JILIN-1 GAOFEN 03D16    
1 51834U 22019L   26094.86293574  .04742356  24575-5  11271-2 0  9993
2 51834  97.3534 192.0232 0009733 271.1205  88.8974 16.29530138228759
JILIN-1 GAOFEN 03D11    
1 51835U 22019M   26095.29091039  .00385264  57844-4  12396-2 0  9994
2 51835  97.3687 190.4896 0002381 243.0208 117.0822 15.90916047228672
JILIN-1 GAOFEN 03D15    
1 51839U 22019R   26095.21560605  .00191125  00000+0  11723-2 0  9991
2 51839  97.3664 187.9485 0001165 152.6855 207.4472 15.76735131228535
